{
    "type": "FeatureCollection",
    "features": [
        {
            "type": "Feature",
            "properties": {
                "@id": "node/4280073489",
                "addr:block_number": "19",
                "addr:city": "横浜市",
                "addr:country": "JP",
                "addr:housename": "ランドマークプラザ",
                "addr:housenumber": "12",
                "addr:neighbourhood": "2",
                "addr:postcode": "220-0011",
                "addr:province": "神奈川県",
                "addr:quarter": "高島",
                "addr:suburb": "西区",
                "branch": "ヨコハマ",
                "branch:en": "Yokohama",
                "brand": "ポケモンセンター",
                "brand:en": "Pokémon Center",
                "brand:ja": "ポケモンセンター",
                "brand:wikidata": "Q89673816",
                "level": "8",
                "name": "ポケモンセンター",
                "name:en": "Pokémon Center",
                "name:ja": "ポケモンセンター",
                "name:ru": "Покемон центр Йокогама",
                "opening_hours": "10:30-20:30",
                "phone": "045-453-3051",
                "shop": "hobby",
                "shop:anime": "yes",
                "shop:game": "yes",
                "shop:tcg": "yes",
                "website": "https://www.pokemon.co.jp/gp/pokecen/yokohama/"
            },
            "geometry": {
                "type": "MultiPolygon",
                "coordinates": [
                    [
                        [
                            [139.6246111, 35.50121678873245],
                            [139.71444262841197, 35.4280513721602],
                            [139.53477957158807, 35.4280513721602],
                            [139.6246111, 35.50121678873245]
                        ]
                    ]
                ]
            }
        },
        {
            "type": "Feature",
            "properties": {
                "@id": "node/4328301119",
                "addr:block_number": "1",
                "addr:city": "大阪市",
                "addr:country": "JP",
                "addr:housename": "大丸梅田店",
                "addr:housenumber": "1",
                "addr:neighbourhood": "梅田3",
                "addr:postcode": "530-8202",
                "addr:suburb": "北区",
                "branch": "オーサカ",
                "branch:en": "Osaka",
                "brand": "ポケモンセンター",
                "brand:en": "Pokémon Center",
                "brand:ja": "ポケモンセンター",
                "brand:wikidata": "Q89673816",
                "level": "13",
                "name": "ポケモンセンター",
                "name:en": "Pokémon Center",
                "name:ja": "ポケモンセンター",
                "name:zh": "神奇寶貝中心",
                "opening_hours": "10:00-20:00",
                "phone": "06-6346-6002",
                "shop": "hobby",
                "shop:anime": "yes",
                "shop:game": "yes",
                "shop:tcg": "yes",
                "website": "https://www.pokemon.co.jp/gp/pokecen/osaka/"
            },
            "geometry": {
                "type": "MultiPolygon",
                "coordinates": [
                    [
                        [
                            [135.4964453, 34.73882483559014],
                            [135.58627682841194, 34.66497208433323],
                            [135.40661377158807, 34.66497208433323],
                            [135.4964453, 34.73882483559014]
                        ]
                    ]
                ]
            }
        },
        {
            "type": "Feature",
            "properties": {
                "@id": "node/4753944823",
                "brand": "ポケモンセンター",
                "brand:en": "Pokémon Center",
                "brand:ja": "ポケモンセンター",
                "brand:wikidata": "Q89673816",
                "name": "ポケモンセンター",
                "name:en": "Pokémon Center",
                "name:ja": "ポケモンセンター",
                "shop": "hobby"
            },
            "geometry": {
                "type": "MultiPolygon",
                "coordinates": [
                    [
                        [
                            [135.7680051, 35.03966307173868],
                            [135.85783662841197, 34.966079984029946],
                            [135.67817357158805, 34.966079984029946],
                            [135.7680051, 35.03966307173868]
                        ]
                    ]
                ]
            }
        },
        {
            "type": "Feature",
            "properties": {
                "@id": "node/5150866522",
                "addr:block_number": "16",
                "addr:city": "名古屋市",
                "addr:country": "JP",
                "addr:housename": "松坂屋名古屋店",
                "addr:housenumber": "1",
                "addr:neighbourhood": "栄3",
                "addr:postcode": "460-8430",
                "addr:province": "愛知県",
                "addr:suburb": "中区",
                "branch": "ナゴヤ",
                "branch:en": "Nagoya",
                "brand": "ポケモンセンター",
                "brand:en": "Pokémon Center",
                "brand:ja": "ポケモンセンター",
                "brand:wikidata": "Q89673816",
                "level": "5",
                "name": "ポケモンセンター",
                "name:en": "Pokémon Center",
                "name:ja": "ポケモンセンター",
                "opening_hours": "10:00-19:30",
                "phone": "052-264-2727",
                "shop": "hobby",
                "shop:anime": "yes",
                "shop:game": "yes",
                "shop:tcg": "yes",
                "website": "https://www.pokemon.co.jp/gp/pokecen/nagoya/"
            },
            "geometry": {
                "type": "MultiPolygon",
                "coordinates": [
                    [
                        [
                            [136.907582, 35.201740992385275],
                            [136.99741352841195, 35.12830402957607],
                            [136.81775047158803, 35.12830402957607],
                            [136.907582, 35.201740992385275]
                        ]
                    ]
                ]
            }
        },
        {
            "type": "Feature",
            "properties": {
                "@id": "node/5891213258",
                "addr:block_number": "1",
                "addr:city": "福岡市",
                "addr:country": "JP",
                "addr:housename": "JR博多シティ",
                "addr:neighbourhood": "博多駅中央街1",
                "addr:place": "ソラマチ",
                "addr:postcode": "812-0012",
                "addr:province": "福岡県",
                "addr:suburb": "博多区",
                "branch": "フクオカ",
                "branch:en": "Fukuoka",
                "brand": "ポケモンセンター",
                "brand:en": "Pokémon Center",
                "brand:ja": "ポケモンセンター",
                "brand:wikidata": "Q89673816",
                "level": "8",
                "name": "ポケモンセンター",
                "name:en": "Pokémon Center",
                "name:ja": "ポケモンセンター",
                "opening_hours": "10:00-21:00",
                "phone": "092-413-5185",
                "shop": "hobby",
                "shop:anime": "yes",
                "shop:game": "yes",
                "shop:tcg": "yes",
                "website": "https://www.pokemon.co.jp/gp/pokecen/fukuoka/"
            },
            "geometry": {
                "type": "MultiPolygon",
                "coordinates": [
                    [
                        [
                            [130.4197821, 33.627437103669],
                            [130.50961362841193, 33.55260586897454],
                            [130.32995057158803, 33.55260586897454],
                            [130.4197821, 33.627437103669]
                        ]
                    ]
                ]
            }
        },
        {
            "type": "Feature",
            "properties": {
                "@id": "node/5891213261",
                "addr:block_number": "27",
                "addr:city": "広島市",
                "addr:country": "JP",
                "addr:housename": "そごう広島店",
                "addr:neighbourhood": "基町6",
                "addr:postcode": "730-8501",
                "addr:province": "広島県",
                "addr:suburb": "中区",
                "branch": "ヒロシマ",
                "branch:en": "Hiroshima",
                "brand": "ポケモンセンター",
                "brand:en": "Pokémon Center",
                "brand:ja": "ポケモンセンター",
                "brand:wikidata": "Q89673816",
                "level": "5",
                "name": "ポケモンセンター",
                "name:en": "Pokémon Center",
                "name:ja": "ポケモンセンター",
                "name:zh": "神奇寶貝中心",
                "opening_hours": "10:00-20:00",
                "phone": "082-846-5093",
                "shop": "hobby",
                "shop:anime": "yes",
                "shop:game": "yes",
                "shop:tcg": "yes",
                "website": "https://www.pokemon.co.jp/gp/pokecen/hiroshima/"
            },
            "geometry": {
                "type": "MultiPolygon",
                "coordinates": [
                    [
                        [
                            [132.4568877, 34.43302897810143],
                            [132.54671922841194, 34.35890420889785],
                            [132.36705617158805, 34.35890420889785],
                            [132.4568877, 34.43302897810143]
                        ]
                    ]
                ]
            }
        },
        {
            "type": "Feature",
            "properties": {
                "@id": "node/5891213264",
                "addr:block_number": "78",
                "addr:city": "京都市",
                "addr:country": "JP",
                "addr:housename": "京都経済センター",
                "addr:postcode": "600-8009",
                "addr:province": "京都府",
                "addr:quarter": "函谷鉾町",
                "addr:street": "四条通",
                "addr:suburb": "下京区",
                "branch": "キョウト",
                "branch:en": "Kyoto",
                "brand": "ポケモンセンター",
                "brand:en": "Pokémon Center",
                "brand:ja": "ポケモンセンター",
                "brand:wikidata": "Q89673816",
                "level": "1",
                "name": "ポケモンセンター",
                "name:en": "Pokémon Center",
                "name:ja": "ポケモンセンター",
                "opening_hours": "10:00-20:00",
                "phone": "075-353-0250",
                "shop": "hobby",
                "shop:anime": "yes",
                "shop:game": "yes",
                "shop:tcg": "yes",
                "website": "https://www.pokemon.co.jp/gp/pokecen/kyoto/"
            },
            "geometry": {
                "type": "MultiPolygon",
                "coordinates": [
                    [
                        [
                            [135.7583695, 35.04015055237974],
                            [135.84820102841195, 34.96656790328642],
                            [135.66853797158805, 34.96656790328642],
                            [135.7583695, 35.04015055237974]
                        ]
                    ]
                ]
            }
        },
        {
            "type": "Feature",
            "properties": {
                "@id": "node/5891213672",
                "addr:block_number": "9",
                "addr:country": "JP",
                "addr:housename": "東京駅一番街",
                "addr:housenumber": "1",
                "addr:neighbourhood": "丸の内1",
                "addr:postcode": "100-0005",
                "addr:province": "東京都",
                "addr:suburb": "千代田区",
                "alt_name": "ポケモンストア",
                "alt_name:en": "Pókemon Store",
                "branch": "東京駅店",
                "branch:en": "Tokyo Station",
                "brand": "ポケモンセンター",
                "brand:en": "Pokémon Center",
                "brand:ja": "ポケモンセンター",
                "brand:wikidata": "Q89673816",
                "level": "-1",
                "name": "ポケモンセンター",
                "name:en": "Pokémon Center",
                "name:ja": "ポケモンセンター",
                "opening_hours": "10:00-20:30",
                "phone": "03-5224-6121",
                "shop": "hobby",
                "shop:anime": "yes",
                "shop:game": "yes",
                "shop:tcg": "yes",
                "website": "https://www.pokemon.co.jp/gp/store/tokyo/"
            },
            "geometry": {
                "type": "MultiPolygon",
                "coordinates": [
                    [
                        [
                            [139.7684259, 35.718023848795454],
                            [139.85825742841197, 35.645056269021396],
                            [139.67859437158808, 35.645056269021396],
                            [139.7684259, 35.718023848795454]
                        ]
                    ]
                ]
            }
        },
        {
            "type": "Feature",
            "properties": {
                "@id": "node/5891213674",
                "addr:block_number": "1",
                "addr:city": "船橋市",
                "addr:country": "JP",
                "addr:housename": "ららぽーとTOKYO-BAY",
                "addr:housenumber": "1",
                "addr:neighbourhood": "浜町2",
                "addr:postcode": "273-8530",
                "addr:province": "千葉県",
                "branch": "トウキョーベイ",
                "branch:en": "Tokyo Bay",
                "brand": "ポケモンセンター",
                "brand:en": "Pokemon Center",
                "level": "2",
                "name": "ポケモンセンター",
                "name:en": "Pokemon Center",
                "name:ja": "ポケモンセンター",
                "opening_hours": "10:00-21:00",
                "phone": "047-421-7757",
                "shop": "hobby",
                "shop:anime": "yes",
                "shop:game": "yes",
                "shop:tcg": "yes",
                "website": "https://www.pokemon.co.jp/gp/pokecen/tokyobay/"
            },
            "geometry": {
                "type": "MultiPolygon",
                "coordinates": [
                    [
                        [
                            [139.988426, 35.7230108668144],
                            [140.07825752841197, 35.650047850022844],
                            [139.89859447158804, 35.650047850022844],
                            [139.988426, 35.7230108668144]
                        ]
                    ]
                ]
            }
        },
        {
            "type": "Feature",
            "properties": {
                "@id": "node/5891213675",
                "addr:block_number": "1",
                "addr:country": "JP",
                "addr:housename": "東京スカイツリータウン",
                "addr:housenumber": "2",
                "addr:neighbourhood": "押上1",
                "addr:place": "ソラマチ",
                "addr:postcode": "131-0045",
                "addr:province": "東京都",
                "addr:suburb": "墨田区",
                "branch": "スカイツリータウン",
                "branch:en": "Skytree Town",
                "brand": "ポケモンセンター",
                "brand:en": "Pokémon Center",
                "brand:ja": "ポケモンセンター",
                "brand:wikidata": "Q89673816",
                "level": "4",
                "name": "ポケモンセンター",
                "name:en": "Pokémon Center",
                "name:ja": "ポケモンセンター",
                "opening_hours": "10:00-21:00",
                "phone": "03-6456-1221",
                "shop": "hobby",
                "shop:anime": "yes",
                "shop:game": "yes",
                "shop:tcg": "yes",
                "website": "https://www.pokemon.co.jp/gp/pokecen/skytreetown/"
            },
            "geometry": {
                "type": "MultiPolygon",
                "coordinates": [
                    [
                        [
                            [139.8122692, 35.74648412210835],
                            [139.90210072841197, 35.6735425901249],
                            [139.72243767158804, 35.6735425901249],
                            [139.8122692, 35.74648412210835]
                        ]
                    ]
                ]
            }
        },
        {
            "type": "Feature",
            "properties": {
                "@id": "node/5891213677",
                "addr:block_number": "11",
                "addr:city": "中央区",
                "addr:country": "JP",
                "addr:housename": "日本橋髙島屋Ｓ.Ｃ.東館",
                "addr:housenumber": "2",
                "addr:neighbourhood": "2",
                "addr:postcode": "103-0027",
                "addr:province": "東京都",
                "addr:quarter": "日本橋",
                "branch": "トウキョーDX",
                "branch:en": "Tokyo DX",
                "brand": "ポケモンセンター",
                "brand:en": "Pokémon Center",
                "brand:ja": "ポケモンセンター",
                "brand:wikidata": "Q89673816",
                "full_name": "ポケモンセンタートウキョーDX",
                "full_name:en": "Pokémon Center Tokyo DX",
                "full_name:ja": "ポケモンセンタートウキョーDX",
                "level": "4",
                "name": "ポケモンセンター",
                "name:en": "Pokémon Center",
                "name:ja": "ポケモンセンター",
                "opening_hours": "10:30-21:00",
                "phone": "+81 3 6262 6452",
                "shop": "hobby",
                "shop:anime": "yes",
                "shop:game": "yes",
                "shop:tcg": "yes",
                "website": "https://www.pokemon.co.jp/gp/pokecen/tokyodx/"
            },
            "geometry": {
                "type": "MultiPolygon",
                "coordinates": [
                    [
                        [
                            [139.7744125, 35.71701051244843],
                            [139.86424402841197, 35.64404200556751],
                            [139.68458097158808, 35.64404200556751],
                            [139.7744125, 35.71701051244843]
                        ]
                    ]
                ]
            }
        },
        {
            "type": "Feature",
            "properties": {
                "@id": "node/5891213680",
                "addr:block_number": "2",
                "addr:city": "仙台市",
                "addr:country": "JP",
                "addr:housename": "仙台PARCO",
                "addr:housenumber": "3",
                "addr:neighbourhood": "中央1",
                "addr:postcode": "980-8484",
                "addr:province": "宮城県",
                "addr:suburb": "青葉区",
                "branch": "トウホク",
                "branch:en": "Tohoku",
                "brand": "ポケモンセンター",
                "brand:en": "Pokémon Center",
                "brand:ja": "ポケモンセンター",
                "brand:wikidata": "Q89673816",
                "level": "8",
                "name": "ポケモンセンター",
                "name:en": "Pokémon Center",
                "name:ja": "ポケモンセンター",
                "opening_hours": "10:00-21:00",
                "phone": "022-716-6870",
                "shop": "hobby",
                "shop:anime": "yes",
                "shop:game": "yes",
                "shop:tcg": "yes",
                "website": "https://www.pokemon.co.jp/gp/pokecen/tohoku/"
            },
            "geometry": {
                "type": "MultiPolygon",
                "coordinates": [
                    [
                        [
                            [140.8816311, 38.2970915054855],
                            [140.97146262841193, 38.22655677389639],
                            [140.79179957158806, 38.22655677389639],
                            [140.8816311, 38.2970915054855]
                        ]
                    ]
                ]
            }
        },
        {
            "type": "Feature",
            "properties": {
                "@id": "node/5891213681",
                "addr:block_number": "7",
                "addr:city": "札幌市",
                "addr:country": "JP",
                "addr:housename": "大丸札幌店",
                "addr:neighbourhood": "北5条西4丁目",
                "addr:postcode": "060-0005",
                "addr:suburb": "中央区",
                "branch": "サッポロ",
                "branch:en": "Sapporo",
                "brand": "ポケモンセンター",
                "brand:en": "Pokémon Center",
                "brand:ja": "ポケモンセンター",
                "brand:wikidata": "Q89673816",
                "level": "8",
                "name": "ポケモンセンター",
                "name:en": "Pokémon Center",
                "name:ja": "ポケモンセンター",
                "opening_hours": "10:00-22:00",
                "phone": "011-232-3212",
                "shop": "hobby",
                "shop:anime": "yes",
                "shop:game": "yes",
                "shop:tcg": "yes",
                "website": "https://www.pokemon.co.jp/gp/pokecen/sapporo/"
            },
            "geometry": {
                "type": "MultiPolygon",
                "coordinates": [
                    [
                        [
                            [141.3494821, 43.100291223768366],
                            [141.43931362841195, 43.03466481091308],
                            [141.25965057158805, 43.03466481091308],
                            [141.3494821, 43.100291223768366]
                        ]
                    ]
                ]
            }
        },
        {
            "type": "Feature",
            "properties": {
                "@id": "node/7012978919",
                "addr:block_number": "1",
                "addr:country": "JP",
                "addr:housename": "渋谷PARCO",
                "addr:neighbourhood": "15",
                "addr:postcode": "150-8377",
                "addr:province": "東京都",
                "addr:quarter": "宇田川町",
                "addr:suburb": "渋谷区",
                "branch": "シブヤ",
                "branch:en": "Shibuya",
                "name": "ポケモンセンター",
                "name:en": "Pokemon Center",
                "name:ja": "ポケモンセンター",
                "opening_hours": "10:00-21:00",
                "phone": "03-5422-3522",
                "shop": "hobby",
                "website": "https://www.pokemon.co.jp/gp/pokecen/shibuya/"
            },
            "geometry": {
                "type": "MultiPolygon",
                "coordinates": [
                    [
                        [
                            [139.6989821, 35.698495482007445],
                            [139.78881362841196, 35.6255100396502],
                            [139.60915057158806, 35.6255100396502],
                            [139.6989821, 35.698495482007445]
                        ]
                    ]
                ]
            }
        },
        {
            "type": "Feature",
            "properties": {
                "@id": "node/7012998621",
                "addr:block_number": "1",
                "addr:city": "大阪市",
                "addr:country": "JP",
                "addr:housename": "大丸梅田店",
                "addr:housenumber": "1",
                "addr:neighbourhood": "梅田3",
                "addr:postcode": "530-8202",
                "addr:suburb": "北区",
                "branch": "オーサカDX",
                "branch:en": "Osaka DX",
                "brand": "ポケモンセンター",
                "brand:en": "Pokémon Center",
                "brand:ja": "ポケモンセンター",
                "brand:wikidata": "Q89673816",
                "level": "9",
                "name": "ポケモンセンター",
                "name:en": "Pokémon Center",
                "name:ja": "ポケモンセンター",
                "name:zh": "神奇寶貝中心",
                "opening_hours": "10:00-20:30",
                "phone": "06-4256-1125",
                "shop": "hobby",
                "shop:anime": "yes",
                "shop:game": "yes",
                "shop:tcg": "yes",
                "website": "https://www.pokemon.co.jp/gp/pokecen/osakadx/"
            },
            "geometry": {
                "type": "MultiPolygon",
                "coordinates": [
                    [
                        [
                            [135.50116270000004, 34.710132245151634],
                            [135.59099422841197, 34.63625388098568],
                            [135.41133117158807, 34.63625388098568],
                            [135.50116270000004, 34.710132245151634]
                        ]
                    ]
                ]
            }
        }
    ]
}
